NOAA 2 (ITOS-D)
1  6235U 72082A   26069.04658759 -.00000035  00000-0  74774-4 0  9994
2  6235 102.0164  86.5047 0003945   4.1772  16.3300 12.53211837442538
SOLRAD-7B
1  1291U 65016D   26069.15857461  .00000006  00000-0  43299-4 0  9998
2  1291  70.0774  86.8001 0023835 253.1285 106.7206 13.94962622102896
OSCAR-7 (AO-7)
1  7530U 74089B   26069.03498318 -.00000043  00000-0  20458-4 0  9993
2  7530 101.9969  81.2286 0011966 321.4313 104.0021 12.53696309348095
UOSAT-2 (UO-11)
1 14781U 84021B   26069.14356080  .00001706  00000-0  18031-3 0  9996
2 14781  97.7949  35.9069 0008455 142.1086 218.0728 14.90509171242377
FLTSATCOM-7 (USA-20)
1 17181U 86096A   26068.93908898 -.00000037  00000-0  00000+0 0  9993
2 17181  12.7809 340.7071 0043587 328.2467 227.0335  0.98928447150984
FLTSATCOM-8 (USA-46)
1 20253U 89077A   26068.57277802 -.00000364  00000-0  00000+0 0  9996
2 20253  12.4488 351.7606 0008603 336.4266 170.5479  1.00260348259560
OSCAR 16 (PACSAT)
1 20439U 90005D   26068.95071072  .00000167  00000-0  76427-4 0  9999
2 20439  98.8649 102.2484 0011006 157.7856 274.7850 14.33901939887718
LUSAT (LO-19)
1 20442U 90005G   26068.62099839  .00000189  00000-0  84338-4 0  9992
2 20442  98.8938  87.6461 0012340 134.6824 225.5367 14.34087969888127
UFO 2 (USA 95)
1 22787U 93056A   26068.95114255  .00000129  00000-0  00000-0 0  9995
2 22787  11.8604   4.0918 0008872 338.4758 196.1477  1.00275547117558
EYESAT-1 (AO-27)
1 22825U 93061C   26068.70702729  .00000144  00000-0  71797-4 0  9998
2 22825  98.6982 136.1171 0008950  38.8989 321.2837 14.30913089692775
ITAMSAT (IO-26) 
1 22826U 93061D   26068.78588609  .00000151  00000-0  73937-4 0  9992
2 22826  98.6929 136.1036 0009186  22.8845 337.2746 14.31337175693092
UFO 3 (USA 104)
1 23132U 94035A   26068.07585193 -.00000087  00000-0  00000-0 0  9998
2 23132  12.3233   6.3122 0005606 295.0922 244.5350  1.00265718130699
RADIO ROSTO (RS-15)
1 23439U 94085A   26068.78421818 -.00000034  00000-0  24441-3 0  9994
2 23439  64.8135 103.9802 0152672  22.0113 338.7277 11.27583894284699
UFO 4 (USA 108)
1 23467U 95003A   26068.68030794 -.00000018  00000-0  00000-0 0  9998
2 23467   9.6757  13.5530 0003627 336.2434 234.7703  1.00273807113951
UFO 7 (USA 127)
1 23967U 96042A   26068.71340801 -.00000230  00000-0  00000-0 0  9990
2 23967  11.0214  17.6138 0002969 105.1351 271.9463  1.00243868108492
JAS-2 (FO-29)
1 24278U 96046B   26068.57277144 -.00000011  00000-0  26197-4 0  9999
2 24278  98.5379 291.0082 0349827 355.0722   4.7008 13.53268683459692
UFO 8 (USA 138)
1 25258U 98016A   26068.68655768 -.00000198  00000-0  00000-0 0  9998
2 25258  11.0104  23.3564 0007687 273.0490 269.5235  1.00286541102863
TECHSAT-1B (GO-32)
1 25397U 98043D   26068.95081118  .00000115  00000-0  69691-4 0  9997
2 25397  99.0027  59.2298 0002069 119.2453 240.8932 14.24406169437203
ISS (ZARYA)
1 25544U 98067A   26068.70691881  .00007976  00000-0  15510-3 0  9996
2 25544  51.6323  72.2710 0008020 174.6781 185.4294 15.48547200556336
UFO 10 (USA 146)
1 25967U 99063A   26068.71479469 -.00000185  00000-0  00000-0 0  9990
2 25967   9.8457  27.7530 0005177 298.6609  75.4818  1.00272609 96351
PCSAT (NO-44)
1 26931U 01043C   26068.55835784  .00000217  00000-0  11176-3 0  9995
2 26931  67.0506 141.9526 0007015 265.3804  94.6497 14.31912221276185
PROBA-1
1 26958U 01049B   26068.95654829  .00004362  00000-0  28513-3 0  9991
2 26958  97.9638  74.0417 0056836  98.1776 262.5903 15.07031721328673
SAUDISAT-1C (SO-50)
1 27607U 02058C   26068.61742404  .00002222  00000-0  27919-3 0  9996
2 27607  64.5524  76.9957 0075248 280.7497  78.5144 14.82783142249695
CUTE-1 (CO-55)
1 27844U 03031E   26068.98532191  .00000429  00000-0  20468-3 0  9990
2 27844  98.6777  78.7801 0010678 111.7093 248.5223 14.24266468177550
CUBESAT XI-IV (CO-57)
1 27848U 03031J   26068.92432161  .00000357  00000-0  17578-3 0  9992
2 27848  98.6810  78.5124 0010400 128.1826 232.0291 14.23561441177255
MOZHAYETS-4 (RS-22)
1 27939U 03042A   26069.00278854  .00001773  00000-0  28251-3 0  9995
2 27939  98.3440 250.5725 0010474 219.0556 256.8132 14.73256247200943
UFO 11 (USA 174)
1 28117U 03057A   26068.90747200 -.00000100  00000-0  00000-0 0  9997
2 28117   8.8542  34.3013 0003458 295.5257 239.8656  1.00272275 81450
CUBESAT XI-V (CO-58)
1 28895U 05043F   26068.37605880  .00002499  00000-0  40288-3 0  9992
2 28895  98.2834 221.9939 0014725 158.5117 201.6710 14.72318453 87066
CAPE-1
1 31130U 07012P   26068.84528955  .00002910  00000-0  52999-3 0  9995
2 31130  98.4372  40.7493 0084516  22.1581 338.3239 14.64585790  3815
CUTE-1.7+APD II (CO-65)
1 32785U 08021C   26069.17790548  .00007750  00000-0  50214-3 0  9994
2 32785  97.8206  48.6585 0009549  17.7424 342.4135 15.08381791970266
SEEDS-II (CO-66)
1 32791U 08021J   26068.92109284  .00023758  00000-0  84213-3 0  9996
2 32791  97.7519  62.3611 0001448 359.2618   0.8619 15.29097235972108
YUBILEINY (RS-30)
1 32953U 08025A   26069.19072546 -.00000108  00000-0 -84857-3 0  9990
2 32953  82.5003  57.0106 0019547 164.1347 196.0349 12.43175309807397
KKS-1 (KISEKI)
1 33499U 09002H   26069.20713884  .00002252  00000-0  28495-3 0  9997
2 33499  98.1180 350.1104 0006488 248.5800 111.4721 14.82832877921520
SWISSCUBE
1 35932U 09051B   26069.16178706  .00001573  00000-0  32157-3 0  9993
2 35932  98.4094 335.3130 0007094 151.3344 208.8248 14.62261322874681
BEESAT
1 35933U 09051C   26069.18922087  .00001311  00000-0  27400-3 0  9990
2 35933  98.4027 335.1802 0005348 161.6855 198.4538 14.61534755874726
ITUPSAT-1
1 35935U 09051E   26069.16240629  .00001196  00000-0  25771-3 0  9995
2 35935  98.4113 334.4472 0007299 176.5342 183.5909 14.60269475874283
PROBA-2
1 36037U 09059B   26069.06404414  .00000365  00000-0  95719-4 0  9997
2 36037  98.2432 253.7919 0012360 223.0179 137.0052 14.54791731867114
XIWANG-1 (HOPE-1)
1 36122U 09072B   26069.14098322  .00000383  00000-0  11199-2 0  9991
2 36122 100.3922  24.6061 0008120  98.5485 261.6548 13.16437895779970
EWS-G2 (GOES-15)
1 36411U 10008A   26069.15973995  .00000023  00000-0  00000+0 0  9999
2 36411   1.0220  85.0238 0002342  16.4096 187.3362  1.00270297 58646
TISAT-1
1 36799U 10035E   26068.75703562  .00024554  00000-0  91005-3 0  9998
2 36799  98.0645   6.8512 0001343 159.3030 200.8262 15.27628633852505
HORYU-2
1 38340U 12025D   26069.16823460  .00006304  00000-0  65310-3 0  9992
2 38340  98.2009 198.1927 0009115 141.7490 218.4375 14.90376240733972
AAUSAT-3
1 39087U 13009B   26068.46135438  .00000995  00000-0  33074-3 0  9999
2 39087  98.3688 254.5295 0012055 147.7274 212.4655 14.39797843682824
STRAND-1
1 39090U 13009E   26068.98211541  .00000464  00000-0  17047-3 0  9993
2 39090  98.3889 251.6665 0009045 160.8844 199.2684 14.37095186682816
CUBEBUG-1 (CAPITAN BETO)
1 39153U 13018D   26068.97398795  .00005941  00000-0  52625-3 0  9995
2 39153  98.1526 224.6129 0013079 115.5703 244.6871 14.96591533696225
PROBA-V
1 39159U 13021A   26068.94661536  .00000115  00000-0  68440-4 0  9999
2 39159  98.3507  52.4960 0005292  69.2213 290.9533 14.23573690666995
ZACUBE-1 (TSHEPISOSAT)
1 39417U 13066B   26069.13026007  .00005383  00000-0  42594-3 0  9998
2 39417  97.8171  30.9564 0042553 218.4928 141.3258 15.00331768665879
TRITON-1
1 39427U 13066M   26069.21158074  .00002018  00000-0  24857-3 0  9992
2 39427  97.8287 341.2900 0090150 196.0281 163.8076 14.81200805659436
DELFI-N3XT
1 39428U 13066N   26068.74741690  .00007321  00000-0  65912-3 0  9991
2 39428  97.8341 349.2574 0076329 176.1438 184.0386 14.93675177659775
GOMX-1
1 39430U 13066Q   26069.16538072  .00002120  00000-0  32460-3 0  9993
2 39430  97.6567 275.8406 0130242  35.9891 324.9999 14.69100787655374
HUMSAT-D
1 39433U 13066T   26068.77891092  .07089284  25853-5  14695-2 0  9996
2 39433  97.4699  82.1645 0007750 211.8767 148.2059 16.31051261671486
VELOX-PII
1 39438U 13066Y   26068.83128555  .00004587  00000-0  44125-3 0  9995
2 39438  97.8641  20.1898 0052355 313.6731  46.0154 14.92474173663014
CUBEBUG-2 (LO-74)
1 39440U 13066AA  26069.09976814  .00006343  00000-0  59620-3 0  9994
2 39440  97.8810  17.7735 0058650 357.6027   2.4902 14.92961927662202
FUNCUBE-1 (AO-73)
1 39444U 13066AE  26068.90648558  .00009564  00000-0  61715-3 0  9994
2 39444  97.8195  38.4486 0037312 178.1154 182.0221 15.07917828664696
UWE-3
1 39446U 13066AG  26068.86347791  .00006533  00000-0  57142-3 0  9998
2 39446  97.8589  24.3957 0048462 291.5404  68.0655 14.96183146662729
UNISAT-6
1 40012U 14033C   26069.21151267  .00004002  00000-0  43744-3 0  9997
2 40012  97.7730 223.7806 0046023  36.0927 324.3381 14.87642889631441
DUCHIFAT-1
1 40021U 14033M   26069.08723611  .00065296  00000-0  11635-2 0  9995
2 40021  98.0632 115.5609 0006054  84.4960 275.6980 15.49868777640335
FUNCUBE-3 (EO-79)
1 40025U 14033R   26068.97393773  .00011283  00000-0  58166-3 0  9996
2 40025  98.1009  73.2758 0008367 193.7221 166.3784 15.16526525637987
SMAP
1 40376U 15003A   26069.13979558  .00000706  00000-0  14582-3 0  9995
2 40376  98.1313  77.6220 0001431 111.8533 248.2821 14.63339864593137
LILACSAT-2
1 40908U 15049K   26069.16126227  .00019949  00000-0  38227-3 0  9997
2 40908  97.4809 102.4021 0005713 243.0956 116.9710 15.48046016580413
LAPAN-A2 (IO-86)
1 40931U          25360.30710720  .00000000  00000-0  12800-3 0    00
2 40931   6.0006 332.5373 0012733 338.8432   8.1437 14.79075515    01
LQSAT
1 40958U 15057A   26069.20916370  .00001035  00000-0  15472-3 0  9996
2 40958  97.6668  67.5111 0015699 231.1109 128.8703 14.76638398560700
PRATHAM
1 41783U 16059A   26069.14658196  .00001022  00000-0  18913-3 0  9997
2 41783  97.8320  70.3738 0031475 171.5318 188.6425 14.67039620504997
ALSAT-1N
1 41789U 16059G   26069.09170150  .00001591  00000-0  27726-3 0  9999
2 41789  97.8037  76.8612 0026787 142.2257 218.0836 14.69119046505456
CAS-2T & KS-1Q
1 41847U 16066G   26069.19191589  .00001693  00000-0  24458-3 0  9994
2 41847  98.3880 146.0363 0343608  69.9727 293.8109 14.44471812490505
